[{"OBJECT_NAME":"ONEWEB-0216","OBJECT_ID":"2021-045AL","EPOCH":"2025-08-29T23:11:53.566080","MEAN_MOTION":13.15549428,"ECCENTRICITY":0.00019461,"INCLINATION":87.9053,"RA_OF_ASC_NODE":317.3004,"ARG_OF_PERICENTER":92.8899,"MEAN_ANOMALY":267.2454,"EPHEMERIS_TYPE":0,"CLASSIFICATION_TYPE":"U","NORAD_CAT_ID":48801,"ELEMENT_SET_NO":999,"REV_AT_EPOCH":20601,"BSTAR":0.00038016043,"MEAN_MOTION_DOT":1.56e-6,"MEAN_MOTION_DDOT":0},{"OBJECT_NAME":"ONEWEB-0239","OBJECT_ID":"2021-045AM","EPOCH":"2025-08-30T02:57:46.697760","MEAN_MOTION":13.15548512,"ECCENTRICITY":0.00010144,"INCLINATION":87.9057,"RA_OF_ASC_NODE":317.2832,"ARG_OF_PERICENTER":93.522,"MEAN_ANOMALY":266.6027,"EPHEMERIS_TYPE":0,"CLASSIFICATION_TYPE":"U","NORAD_CAT_ID":48802,"ELEMENT_SET_NO":999,"REV_AT_EPOCH":20607,"BSTAR":0.00050619566,"MEAN_MOTION_DOT":2.03e-6,"MEAN_MOTION_DDOT":0},{"OBJECT_NAME":"ONEWEB-0249","OBJECT_ID":"2021-060A","EPOCH":"2025-08-30T03:15:28.422432","MEAN_MOTION":13.16594155,"ECCENTRICITY":0.00017967,"INCLINATION":87.9002,"RA_OF_ASC_NODE":286.7942,"ARG_OF_PERICENTER":95.9124,"MEAN_ANOMALY":264.2211,"EPHEMERIS_TYPE":0,"CLASSIFICATION_TYPE":"U","NORAD_CAT_ID":48967,"ELEMENT_SET_NO":999,"REV_AT_EPOCH":20131,"BSTAR":2.5990164e-5,"MEAN_MOTION_DOT":2.3e-7,"MEAN_MOTION_DDOT":0},{"OBJECT_NAME":"ONEWEB-0250","OBJECT_ID":"2021-060B","EPOCH":"2025-08-30T01:48:17.583264","MEAN_MOTION":13.25812793,"ECCENTRICITY":0.00013693,"INCLINATION":87.9002,"RA_OF_ASC_NODE":285.5161,"ARG_OF_PERICENTER":123.6275,"MEAN_ANOMALY":236.4992,"EPHEMERIS_TYPE":0,"CLASSIFICATION_TYPE":"U","NORAD_CAT_ID":48968,"ELEMENT_SET_NO":999,"REV_AT_EPOCH":20164,"BSTAR":0.00011968798,"MEAN_MOTION_DOT":6.6e-7,"MEAN_MOTION_DDOT":0},{"OBJECT_NAME":"ONEWEB-0252","OBJECT_ID":"2021-060D","EPOCH":"2025-08-30T02:11:38.108256","MEAN_MOTION":13.16594665,"ECCENTRICITY":0.00022041,"INCLINATION":87.9003,"RA_OF_ASC_NODE":286.7963,"ARG_OF_PERICENTER":89.1874,"MEAN_ANOMALY":270.9509,"EPHEMERIS_TYPE":0,"CLASSIFICATION_TYPE":"U","NORAD_CAT_ID":48970,"ELEMENT_SET_NO":999,"REV_AT_EPOCH":20135,"BSTAR":-1.3748263e-5,"MEAN_MOTION_DOT":8.0e-8,"MEAN_MOTION_DDOT":0},{"OBJECT_NAME":"ONEWEB-0253","OBJECT_ID":"2021-060E","EPOCH":"2025-08-30T01:55:40.080000","MEAN_MOTION":13.16594778,"ECCENTRICITY":0.00017904,"INCLINATION":87.9004,"RA_OF_ASC_NODE":286.8021,"ARG_OF_PERICENTER":89.1469,"MEAN_ANOMALY":270.9867,"EPHEMERIS_TYPE":0,"CLASSIFICATION_TYPE":"U","NORAD_CAT_ID":48971,"ELEMENT_SET_NO":999,"REV_AT_EPOCH":20128,"BSTAR":-9.550293e-6,"MEAN_MOTION_DOT":9.0e-8,"MEAN_MOTION_DDOT":0},{"OBJECT_NAME":"ONEWEB-0254","OBJECT_ID":"2021-060F","EPOCH":"2025-08-30T02:09:20.439360","MEAN_MOTION":13.16592617,"ECCENTRICITY":0.00014921,"INCLINATION":87.9006,"RA_OF_ASC_NODE":286.7866,"ARG_OF_PERICENTER":91.1913,"MEAN_ANOMALY":268.9389,"EPHEMERIS_TYPE":0,"CLASSIFICATION_TYPE":"U","NORAD_CAT_ID":48972,"ELEMENT_SET_NO":999,"REV_AT_EPOCH":20128,"BSTAR":-6.8440171e-5,"MEAN_MOTION_DOT":-1.3e-7,"MEAN_MOTION_DDOT":0},{"OBJECT_NAME":"ONEWEB-0255","OBJECT_ID":"2021-060G","EPOCH":"2025-08-30T03:04:04.025568","MEAN_MOTION":13.16594813,"ECCENTRICITY":0.00016669,"INCLINATION":87.8997,"RA_OF_ASC_NODE":286.8069,"ARG_OF_PERICENTER":90.3038,"MEAN_ANOMALY":269.8284,"EPHEMERIS_TYPE":0,"CLASSIFICATION_TYPE":"U","NORAD_CAT_ID":48973,"ELEMENT_SET_NO":999,"REV_AT_EPOCH":20136,"BSTAR":4.543381e-6,"MEAN_MOTION_DOT":1.5e-7,"MEAN_MOTION_DDOT":0},{"OBJECT_NAME":"ONEWEB-0256","OBJECT_ID":"2021-060H","EPOCH":"2025-08-30T01:52:14.806560","MEAN_MOTION":13.16594838,"ECCENTRICITY":0.00020855,"INCLINATION":87.8996,"RA_OF_ASC_NODE":286.8274,"ARG_OF_PERICENTER":93.0943,"MEAN_ANOMALY":267.0427,"EPHEMERIS_TYPE":0,"CLASSIFICATION_TYPE":"U","NORAD_CAT_ID":48974,"ELEMENT_SET_NO":999,"REV_AT_EPOCH":20132,"BSTAR":1.152106e-6,"MEAN_MOTION_DOT":1.3e-7,"MEAN_MOTION_DDOT":0},{"OBJECT_NAME":"ONEWEB-0257","OBJECT_ID":"2021-060J","EPOCH":"2025-08-30T02:38:59.604576","MEAN_MOTION":13.16594084,"ECCENTRICITY":0.00018067,"INCLINATION":87.9001,"RA_OF_ASC_NODE":286.7891,"ARG_OF_PERICENTER":87.5061,"MEAN_ANOMALY":272.6277,"EPHEMERIS_TYPE":0,"CLASSIFICATION_TYPE":"U","NORAD_CAT_ID":48975,"ELEMENT_SET_NO":999,"REV_AT_EPOCH":20128,"BSTAR":0.00034817815,"MEAN_MOTION_DOT":1.46e-6,"MEAN_MOTION_DDOT":0},{"OBJECT_NAME":"ONEWEB-0258","OBJECT_ID":"2021-060K","EPOCH":"2025-08-30T02:41:16.305792","MEAN_MOTION":13.16595179,"ECCENTRICITY":0.0001861,"INCLINATION":87.8998,"RA_OF_ASC_NODE":286.8129,"ARG_OF_PERICENTER":96.3851,"MEAN_ANOMALY":263.7492,"EPHEMERIS_TYPE":0,"CLASSIFICATION_TYPE":"U","NORAD_CAT_ID":48976,"ELEMENT_SET_NO":999,"REV_AT_EPOCH":20129,"BSTAR":0.00030050278,"MEAN_MOTION_DOT":1.28e-6,"MEAN_MOTION_DDOT":0},{"OBJECT_NAME":"ONEWEB-0259","OBJECT_ID":"2021-060L","EPOCH":"2025-08-30T02:32:09.043008","MEAN_MOTION":13.16594249,"ECCENTRICITY":0.00017432,"INCLINATION":87.9003,"RA_OF_ASC_NODE":286.7997,"ARG_OF_PERICENTER":93.2105,"MEAN_ANOMALY":266.9226,"EPHEMERIS_TYPE":0,"CLASSIFICATION_TYPE":"U","NORAD_CAT_ID":48977,"ELEMENT_SET_NO":999,"REV_AT_EPOCH":20132,"BSTAR":0.00029047475,"MEAN_MOTION_DOT":1.24e-6,"MEAN_MOTION_DDOT":0},{"OBJECT_NAME":"ONEWEB-0260","OBJECT_ID":"2021-060M","EPOCH":"2025-08-30T02:19:36.559488","MEAN_MOTION":13.16594121,"ECCENTRICITY":0.00022886,"INCLINATION":87.8995,"RA_OF_ASC_NODE":286.8255,"ARG_OF_PERICENTER":85.2493,"MEAN_ANOMALY":274.89,"EPHEMERIS_TYPE":0,"CLASSIFICATION_TYPE":"U","NORAD_CAT_ID":48978,"ELEMENT_SET_NO":999,"REV_AT_EPOCH":20130,"BSTAR":-0.00011595013,"MEAN_MOTION_DOT":-3.1e-7,"MEAN_MOTION_DDOT":0},{"OBJECT_NAME":"ONEWEB-0261","OBJECT_ID":"2021-060N","EPOCH":"2025-08-30T03:25:43.266432","MEAN_MOTION":13.16593513,"ECCENTRICITY":0.00017535,"INCLINATION":87.8996,"RA_OF_ASC_NODE":286.8177,"ARG_OF_PERICENTER":80.8432,"MEAN_ANOMALY":279.2897,"EPHEMERIS_TYPE":0,"CLASSIFICATION_TYPE":"U","NORAD_CAT_ID":48979,"ELEMENT_SET_NO":999,"REV_AT_EPOCH":20136,"BSTAR":0.00020300852,"MEAN_MOTION_DOT":9.0e-7,"MEAN_MOTION_DDOT":0},{"OBJECT_NAME":"ONEWEB-0262","OBJECT_ID":"2021-060P","EPOCH":"2025-08-30T02:57:14.070528","MEAN_MOTION":13.16595487,"ECCENTRICITY":0.0001584,"INCLINATION":87.9002,"RA_OF_ASC_NODE":286.7851,"ARG_OF_PERICENTER":96.9129,"MEAN_ANOMALY":263.2182,"EPHEMERIS_TYPE":0,"CLASSIFICATION_TYPE":"U","NORAD_CAT_ID":48980,"ELEMENT_SET_NO":999,"REV_AT_EPOCH":20132,"BSTAR":0.00028303484,"MEAN_MOTION_DOT":1.21e-6,"MEAN_MOTION_DDOT":0},{"OBJECT_NAME":"ONEWEB-0263","OBJECT_ID":"2021-060Q","EPOCH":"2025-08-30T01:53:23.471232","MEAN_MOTION":13.16594198,"ECCENTRICITY":0.00015724,"INCLINATION":87.9001,"RA_OF_ASC_NODE":286.8168,"ARG_OF_PERICENTER":84.2943,"MEAN_ANOMALY":275.8367,"EPHEMERIS_TYPE":0,"CLASSIFICATION_TYPE":"U","NORAD_CAT_ID":48981,"ELEMENT_SET_NO":999,"REV_AT_EPOCH":20128,"BSTAR":0.00016586337,"MEAN_MOTION_DOT":7.6e-7,"MEAN_MOTION_DDOT":0}]
