ONEWEB-0216             
1 48801U 21045AL  25241.96659220  .00000156  00000+0  38016-3 0  9998
2 48801  87.9053 317.3004 0001946  92.8899 267.2454 13.15549428206019
ONEWEB-0239             
1 48802U 21045AM  25242.12345715  .00000203  00000+0  50620-3 0  9997
2 48802  87.9057 317.2832 0001014  93.5220 266.6027 13.15548512206072
ONEWEB-0249             
1 48967U 21060A   25242.13574563  .00000023  00000+0  25990-4 0  9995
2 48967  87.9002 286.7942 0001796  95.9124 264.2211 13.16594155201318
ONEWEB-0250             
1 48968U 21060B   25242.07520351  .00000066  00000+0  11969-3 0  9992
2 48968  87.9002 285.5161 0001369 123.6275 236.4992 13.25812793201645
ONEWEB-0252             
1 48970U 21060D   25242.09141329  .00000008  00000+0 -13748-4 0  9996
2 48970  87.9003 286.7963 0002204  89.1874 270.9509 13.16594665201352
ONEWEB-0253             
1 48971U 21060E   25242.08032500  .00000009  00000+0 -95503-5 0  9997
2 48971  87.9004 286.8021 0001790  89.1469 270.9867 13.16594778201283
ONEWEB-0254             
1 48972U 21060F   25242.08981990 -.00000013  00000+0 -68440-4 0  9999
2 48972  87.9006 286.7866 0001492  91.1913 268.9389 13.16592617201284
ONEWEB-0255             
1 48973U 21060G   25242.12782437  .00000015  00000+0  45434-5 0  9999
2 48973  87.8997 286.8069 0001666  90.3038 269.8284 13.16594813201364
ONEWEB-0256             
1 48974U 21060H   25242.07794915  .00000013  00000+0  11521-5 0  9996
2 48974  87.8996 286.8274 0002085  93.0943 267.0427 13.16594838201325
ONEWEB-0257             
1 48975U 21060J   25242.11041209  .00000146  00000+0  34818-3 0  9992
2 48975  87.9001 286.7891 0001806  87.5061 272.6277 13.16594084201280
ONEWEB-0258             
1 48976U 21060K   25242.11199428  .00000128  00000+0  30050-3 0  9994
2 48976  87.8998 286.8129 0001861  96.3851 263.7492 13.16595179201293
ONEWEB-0259             
1 48977U 21060L   25242.10566022  .00000124  00000+0  29047-3 0  9992
2 48977  87.9003 286.7997 0001743  93.2105 266.9226 13.16594249201322
ONEWEB-0260             
1 48978U 21060M   25242.09695092 -.00000031  00000+0 -11595-3 0  9999
2 48978  87.8995 286.8255 0002288  85.2493 274.8900 13.16594121201300
ONEWEB-0261             
1 48979U 21060N   25242.14286188  .00000090  00000+0  20301-3 0  9996
2 48979  87.8996 286.8177 0001753  80.8432 279.2897 13.16593513201369
ONEWEB-0262             
1 48980U 21060P   25242.12307952  .00000121  00000+0  28303-3 0  9994
2 48980  87.9002 286.7851 0001584  96.9129 263.2182 13.16595487201329
ONEWEB-0263             
1 48981U 21060Q   25242.07874388  .00000076  00000+0  16586-3 0  9990
2 48981  87.9001 286.8168 0001572  84.2943 275.8367 13.16594198201289
